{"type": "FeatureCollection", "features": [{"type": "Feature", "geometry": {"type": "Point", "coordinates": [-122.2727, 37.8716]}, "properties": {"id": "23798578-e8a9-4668-82ce-e7ea2b34fcea", "name": "Berkeley Food Network", "city": "Berkeley", "state": "CA", "address": "1925 Ninth Street", "postal_code": "94710", "website_url": "https://berkeleyfoodnetwork.org/", "organization_type": "Nonprofit / Grassroots", "reach": "Regional", "verified": null, "summary": "The Berkeley Food Network is a nonprofit organization focused on ending hunger in Berkeley and Albany by providing easy and convenient access to healthy, high-quality free food through innovative, community-centered food sourcing and distribution.", "audience_focus": ["Residents"], "climate_categories": ["Food & Food Waste"], "advocacy_vs_action": ["action"], "adaptation_vs_mitigation": ["mitigation"], "tags": ["community support", "food justice", "food recovery", "sustainability"], "social_links": [], "geocode_status": null}}, {"type": "Feature", "geometry": {"type": "Point", "coordinates": [-122.3961, 37.7897]}, "properties": {"id": "bf2226fc-0bbf-4eaa-a5c9-d2a714842927", "name": "Bay Area Air Quality Management District", "city": "San Francisco", "state": "CA", "address": "375 Beale St, San Francisco, CA 94105", "postal_code": "94105", "website_url": "https://www.baaqmd.gov", "organization_type": "Municipal / Government-affiliated", "reach": "Regional", "verified": null, "summary": "The Bay Area Air Quality Management District implements programs aimed at reducing air pollution and greenhouse gas emissions across the Bay Area.", "audience_focus": ["Municipality", "Residents"], "climate_categories": ["Environmental"], "advocacy_vs_action": ["both"], "adaptation_vs_mitigation": ["both"], "tags": ["air quality", "community health", "greenhouse gas emissions", "policy development", "pollution control", "transportation"], "social_links": [], "geocode_status": null}}, {"type": "Feature", "geometry": {"type": "Point", "coordinates": [-121.4944, 38.5816]}, "properties": {"id": "246bb2bf-adbb-438e-9f89-8994a3f8622f", "name": "California Air Resources Board", "city": "Sacramento", "state": "CA", "address": "1001 I Street, Sacramento, CA 95814", "postal_code": "95814", "website_url": "https://ww2.arb.ca.gov/", "organization_type": "Municipal / Government-affiliated", "reach": "State / National", "verified": null, "summary": "The California Air Resources Board (CARB) is responsible for protecting the public from the harmful effects of air pollution and developing programs and actions to fight climate change. CARB is a leader in clean air and climate policy, focusing on zero-emission vehicles and clean transportation.", "audience_focus": ["Businesses", "Municipality", "Residents"], "climate_categories": ["Environmental", "Transportation", "Energy Efficiency"], "advocacy_vs_action": ["both"], "adaptation_vs_mitigation": ["both"], "tags": ["air quality", "clean transportation", "climate policy", "environmental justice", "zero-emission vehicles"], "social_links": ["https://twitter.com/CaliforniaAir", "https://www.facebook.com/CaliforniaAirResourcesBoard", "https://www.linkedin.com/company/california-air-resources-board", "https://www.youtube.com/user/ARBmultimedia"], "geocode_status": null}}, {"type": "Feature", "geometry": {"type": "Point", "coordinates": [-118.5301, 34.2381]}, "properties": {"id": "9dd868cc-8d1a-41b3-ad3d-7d05f3f9624a", "name": "California State University, Northridge - Institute for Sustainability", "city": "Northridge", "state": "CA", "address": "18111 Nordhoff St", "postal_code": "91330", "website_url": "https://www.csun.edu/sustainability", "organization_type": "Academic", "reach": "Regional", "verified": null, "summary": "The Institute for Sustainability at California State University, Northridge promotes sustainability and climate education through research and community engagement, focusing on operations, infrastructure, outreach, education, and research.", "audience_focus": ["Businesses", "Municipality", "Residents"], "climate_categories": ["Environmental", "Waste Reduction", "Energy Efficiency"], "advocacy_vs_action": ["both"], "adaptation_vs_mitigation": ["both"], "tags": ["climate education", "community engagement", "research", "sustainability"], "social_links": ["https://twitter.com/CSUNSustain", "https://www.facebook.com/CSUNSustainability", "https://www.instagram.com/CSUNSustainability"], "geocode_status": null}}, {"type": "Feature", "geometry": {"type": "Point", "coordinates": [-122.8239, 38.4021]}, "properties": {"id": "6c897ae4-9fbb-4d1b-8e12-61befb66576a", "name": "Climate Action Now", "city": "Sebastopol", "state": "CA", "address": "unknown", "postal_code": "95472", "website_url": "https://www.climateactionnow.org/", "organization_type": "Nonprofit / Grassroots", "reach": "Town / City", "verified": null, "summary": "Climate Action Now works on grassroots initiatives to promote climate action and policy changes at local levels.", "audience_focus": ["Residents"], "climate_categories": ["Unknown"], "advocacy_vs_action": ["both"], "adaptation_vs_mitigation": ["both"], "tags": ["climate action", "grassroots", "policy changes"], "social_links": [], "geocode_status": null}}, {"type": "Feature", "geometry": {"type": "Point", "coordinates": [-71.1062, 42.4184]}, "properties": {"id": "8fc268ac-242f-4fcf-889c-b83bb7e0acd4", "name": "Mystic River Watershed Association", "city": "Medford", "state": "MA", "address": "Medford, MA", "postal_code": "02155", "website_url": "https://www.mysticriver.org/", "organization_type": "Nonprofit / Grassroots", "reach": "Regional", "verified": null, "summary": "The Mystic River Watershed Association focuses on climate resilience, environmental justice, and improving water quality in the Mystic River area.", "audience_focus": ["Municipality", "Residents"], "climate_categories": ["Environmental", "Waste Reduction", "Energy Efficiency"], "advocacy_vs_action": ["both"], "adaptation_vs_mitigation": ["both"], "tags": ["biodiversity", "climate resilience", "community engagement", "environmental justice", "water quality"], "social_links": [], "geocode_status": null}}, {"type": "Feature", "geometry": {"type": "Point", "coordinates": [-72.5994, 42.5876]}, "properties": {"id": "cdb8fbd0-2d4a-4808-a676-1f090061297f", "name": "Greenfield Community College", "city": "Greenfield", "state": "MA", "address": "1 College Drive", "postal_code": "01301", "website_url": "https://www.gcc.mass.edu/", "organization_type": "Academic", "reach": "Regional", "verified": null, "summary": "Greenfield Community College offers courses and programs focused on sustainability and climate education, including renewable energy and environmental science.", "audience_focus": ["Businesses", "Municipality", "Residents"], "climate_categories": ["Environmental", "Energy Efficiency"], "advocacy_vs_action": ["both"], "adaptation_vs_mitigation": ["both"], "tags": ["education", "environmental science", "renewable energy", "sustainability"], "social_links": [], "geocode_status": null}}, {"type": "Feature", "geometry": {"type": "Point", "coordinates": [-72.5579, 42.8509]}, "properties": {"id": "cd100878-bc42-4a4d-b6a3-ec893cb275bb", "name": "Windham Regional Commission", "city": "Brattleboro", "state": "VT", "address": "139 Main Street", "postal_code": "05301", "website_url": "https://www.windhamregional.org/", "organization_type": "Nonprofit / Grassroots", "reach": "Regional", "verified": null, "summary": "The Windham Regional Commission provides a link between local, state, and federal government, assisting towns in Southeastern Vermont with effective local governance and addressing regional issues. Their work includes planning and zoning assistance, transportation, community development, energy, natural resources, and emergency planning.", "audience_focus": ["Municipality", "Residents"], "climate_categories": ["Environmental", "Energy Efficiency", "Transportation"], "advocacy_vs_action": ["both"], "adaptation_vs_mitigation": ["both"], "tags": ["community development", "emergency planning", "energy", "energy planning", "municipal services", "natural resources", "regional planning", "transportation"], "social_links": [], "geocode_status": null}}, {"type": "Feature", "geometry": {"type": "Point", "coordinates": [-72.5579, 42.8509]}, "properties": {"id": "b6dc22ca-654e-465e-91fa-1916947d0316", "name": "Brattleboro Energy Committee", "city": "Brattleboro", "state": "VT", "address": "unknown", "postal_code": "05301", "website_url": "https://www.brattleborovt.gov/energy-committee", "organization_type": "Municipal / Government-affiliated", "reach": "Town / City", "verified": null, "summary": "The Brattleboro Energy Committee focuses on energy efficiency and renewable energy initiatives to reduce carbon emissions.", "audience_focus": ["Municipality", "Residents"], "climate_categories": ["Energy Efficiency"], "advocacy_vs_action": ["both"], "adaptation_vs_mitigation": ["mitigation"], "tags": ["carbon emissions", "energy efficiency", "renewable energy"], "social_links": [], "geocode_status": null}}, {"type": "Feature", "geometry": {"type": "Point", "coordinates": [-73.1853, 44.4917]}, "properties": {"id": "ff27b23b-4f7d-4132-a5cf-e8ad09e5c355", "name": "Vermont Energy Investment Corporation (VEIC)", "city": "Winooski", "state": "VT", "address": "20 Winooski Falls Way, 5th", "postal_code": "05404", "website_url": "https://www.veic.org/", "organization_type": "Nonprofit / Grassroots", "reach": "State / National", "verified": null, "summary": "VEIC is a nonprofit organization that designs innovative and holistic clean energy solutions to grow local economies, improve public health, and strengthen communities. They work with various partners to meet clean energy goals and have avoided over 115 million metric tons of CO2e emissions since 2000.", "audience_focus": ["Businesses", "Municipality", "Residents"], "climate_categories": ["Energy Efficiency", "Transportation"], "advocacy_vs_action": ["both"], "adaptation_vs_mitigation": ["both"], "tags": ["clean energy", "decarbonization", "energy efficiency", "fleet electrification"], "social_links": [], "geocode_status": null}}]}